NORAD_CAT_ID,OBJECT_NAME,OBJECT_TYPE,EPOCH,MEAN_MOTION,ECCENTRICITY,INCLINATION,RA_OF_ASC_NODE,ARG_OF_PERICENTER,MEAN_ANOMALY,BSTAR,MEAN_MOTION_DOT,MEAN_MOTION_DDOT,TLE_LINE0,TLE_LINE1,TLE_LINE2,SEMIMAJOR_AXIS,PERIOD,APOGEE,PERIGEE,DECAYED
56481.0,STARLINK-6222,PAYLOAD,2024-08-11 02:19:47,14.98336171,0.0002605,70.0009,135.6277,267.5962,92.4898,0.00010186,1.123e-05,0.0,0 STARLINK-6222,1 56481U 23064AK  24224.09707849  .00001123  00000-0  10186-3 0  9993,2 56481  70.0009 135.6277 0002605 267.5962  92.4898 14.98336171 69887,6950.174,96.107,573.849,570.228,0.0
56481.0,STARLINK-6222,PAYLOAD,2024-08-11 11:56:36,14.98334228,0.0002165,70.0034,134.6181,284.5779,75.514,4.1868e-05,4.07e-06,0.0,0 STARLINK-6222,1 56481U 23064AK  24224.49764137  .00000407  00000-0  41868-4 0  9996,2 56481  70.0034 134.6181 0002165 284.5779  75.5140 14.98334228 69944,6950.18,96.107,573.55,570.54,0.0
56481.0,STARLINK-6222,PAYLOAD,2024-08-11 18:21:08,14.98327827,0.0002375,70.0009,133.945,278.9931,81.0959,9.7478e-05,1.07e-05,0.0,0 STARLINK-6222,1 56481U 23064AK  24224.76468296  .00001070  00000-0  97478-4 0  9998,2 56481  70.0009 133.9450 0002375 278.9931  81.0959 14.98327827 69988,6950.2,96.107,573.715,570.414,0.0
56481.0,STARLINK-6222,PAYLOAD,2024-08-11 21:33:24,14.98325246,0.0002529,70.0002,133.6067,272.6075,87.4795,5.3002e-05,5.39e-06,0.0,0 STARLINK-6222,1 56481U 23064AK  24224.89820562  .00000539  00000-0  53002-4 0  9994,2 56481  70.0002 133.6067 0002529 272.6075  87.4795 14.98325246 69647,6950.208,96.107,573.83,570.315,0.0
56481.0,STARLINK-6222,PAYLOAD,2024-08-12 03:57:55,14.98346154,0.0003072,69.9999,132.9335,270.2231,89.8576,0.0001549,1.756e-05,0.0,0 STARLINK-6222,1 56481U 23064AK  24225.16522858  .00001756  00000-0  15490-3 0  9992,2 56481  69.9999 132.9335 0003072 270.2231  89.8576 14.98346154 70041,6950.143,96.106,574.143,569.873,0.0
56481.0,STARLINK-6222,PAYLOAD,2024-08-12 21:35:25,14.98340609,0.0002543,70.0005,131.0857,263.9677,96.1193,-7.2656e-05,-9.6e-06,0.0,0 STARLINK-6222,1 56481U 23064AK  24225.89959656 -.00000960  00000-0 -72656-4 0  9998,2 56481  70.0005 131.0857 0002543 263.9677  96.1193 14.98340609 70153,6950.16,96.106,573.793,570.258,0.0
56481.0,STARLINK-6222,PAYLOAD,2024-08-12 23:11:33,14.98339511,0.0002687,70.0004,130.9148,284.4079,75.6782,-3.4264e-05,-5.02e-06,0.0,0 STARLINK-6222,1 56481U 23064AK  24225.96635717 -.00000502  00000-0 -34264-4 0  9990,2 56481  70.0004 130.9148 0002687 284.4079  75.6782 14.98339511 69802,6950.163,96.106,573.896,570.161,0.0
56481.0,STARLINK-6222,PAYLOAD,2024-08-13 03:59:55,14.98357526,0.00026,70.0006,130.4113,260.0257,100.0608,0.00016812,1.915e-05,0.0,0 STARLINK-6222,1 56481U 23064AK  24226.16661703  .00001915  00000-0  16812-3 0  9992,2 56481  70.0006 130.4113 0002600 260.0257 100.0608 14.98357526 70194,6950.108,96.105,573.78,570.166,0.0
56481.0,STARLINK-6222,PAYLOAD,2024-08-13 10:24:31,14.98316975,0.0002696,70.0005,129.7371,279.9197,80.1657,-0.00035894,-4.372e-05,0.0,0 STARLINK-6222,1 56481U 23064AK  24226.43369557 -.00004372  00000-0 -35894-3 0  9997,2 56481  70.0005 129.7371 0002696 279.9197  80.1657 14.98316975 70237,6950.233,96.108,573.972,570.224,0.0
56481.0,STARLINK-6222,PAYLOAD,2024-08-13 23:13:39,14.98275746,0.0002474,70.0011,128.3908,285.299,74.7896,-0.00044242,-5.36e-05,0.0,0 STARLINK-6222,1 56481U 23064AK  24226.96781735 -.00005360  00000-0 -44242-3 0  9996,2 56481  70.0011 128.3908 0002474 285.2990  74.7896 14.98275746 69951,6950.361,96.11,573.945,570.506,0.0
56481.0,STARLINK-6222,PAYLOAD,2024-08-14 04:02:04,14.98273499,0.0002396,70.0013,127.8857,287.0696,73.02,-0.00043909,-5.32e-05,0.0,0 STARLINK-6222,1 56481U 23064AK  24227.16810542 -.00005320  00000-0 -43909-3 0  9993,2 56481  70.0013 127.8857 0002396 287.0696  73.0200 14.98273499 70345,6950.368,96.111,573.898,570.567,0.0
56481.0,STARLINK-6222,PAYLOAD,2024-08-14 10:26:32,14.98334374,0.000308,70.0011,127.2115,274.8525,85.2282,-0.00021968,-2.713e-05,0.0,0 STARLINK-6222,1 56481U 23064AK  24227.43510253 -.00002713  00000-0 -21968-3 0  9993,2 56481  70.0011 127.2115 0003080 274.8525  85.2282 14.98334374 70389,6950.179,96.107,574.185,569.904,0.0
56481.0,STARLINK-6222,PAYLOAD,2024-08-14 20:03:20,14.98345583,0.000264,70.0006,126.2026,269.7411,90.3445,-6.7112e-05,-8.94e-06,0.0,0 STARLINK-6222,1 56481U 23064AK  24227.83565534 -.00000894  00000-0 -67112-4 0  9999,2 56481  70.0006 126.2026 0002640 269.7411  90.3445 14.98345583 70440,6950.145,96.106,573.845,570.175,0.0
56481.0,STARLINK-6222,PAYLOAD,2024-08-14 23:15:36,14.98344576,0.0002509,70.0006,125.8662,269.9617,90.1254,2.8534e-05,2.48e-06,0.0,0 STARLINK-6222,1 56481U 23064AK  24227.96917232  .00000248  00000-0  28534-4 0  9995,2 56481  70.0006 125.8662 0002509 269.9617  90.1254 14.98344576 70105,6950.148,96.106,573.757,570.269,0.0
56481.0,STARLINK-6222,PAYLOAD,2024-08-15 02:27:52,14.9834889,0.000276,70.0,125.5286,273.1636,86.9207,5.3216e-05,5.42e-06,0.0,0 STARLINK-6222,1 56481U 23064AK  24228.10268776  .00000542  00000-0  53216-4 0  9996,2 56481  70.0000 125.5286 0002760 273.1636  86.9207 14.98348890 70480,6950.134,96.106,573.918,570.081,0.0
56481.0,STARLINK-6222,PAYLOAD,2024-08-15 10:28:32,14.98365527,0.0002741,70.0004,124.6867,275.095,84.9896,-0.00028342,-3.476e-05,0.0,0 STARLINK-6222,1 56481U 23064AK  24228.43648242 -.00003476  00000-0 -28342-3 0  9994,2 56481  70.0004 124.6867 0002741 275.0950  84.9896 14.98365527 70172,6950.083,96.105,573.853,570.043,0.0
56481.0,STARLINK-6222,PAYLOAD,2024-08-15 21:41:29,14.98314709,0.0002497,70.0005,123.5095,278.1182,81.9694,0.00056579,6.662e-05,0.0,0 STARLINK-6222,1 56481U 23064AK  24228.90381721  .00006662  00000-0  56579-3 0  9993,2 56481  70.0005 123.5095 0002497 278.1182  81.9694 14.98314709 70600,6950.24,96.108,573.841,570.37,0.0
56481.0,STARLINK-6222,PAYLOAD,2024-08-15 23:17:37,14.98319578,0.000257,70.0005,123.341,276.4516,83.635,0.00054643,6.431e-05,0.0,0 STARLINK-6222,1 56481U 23064AK  24228.97057488  .00006431  00000-0  54643-3 0  9994,2 56481  70.0005 123.3410 0002570 276.4516  83.6350 14.98319578 70251,6950.225,96.108,573.876,570.304,0.0
56481.0,STARLINK-6222,PAYLOAD,2024-08-16 02:29:53,14.98316492,0.0002725,70.0,123.0034,271.3765,88.7081,0.00055269,6.505e-05,0.0,0 STARLINK-6222,1 56481U 23064AK  24229.10409628  .00006505  00000-0  55269-3 0  9994,2 56481  70.0000 123.0034 0002725 271.3765  88.7081 14.98316492 70638,6950.235,96.108,573.994,570.206,0.0
56481.0,STARLINK-6222,PAYLOAD,2024-08-16 21:43:30,14.98345115,0.0002979,70.0,120.9834,270.6321,89.4497,6.7521e-07,-8.5e-07,0.0,0 STARLINK-6222,1 56481U 23064AK  24229.90520926 -.00000085  00000-0  67521-6 0  9992,2 56481  70.0000 120.9834 0002979 270.6321  89.4497 14.98345115 70399,6950.146,96.106,574.082,569.941,0.0
56481.0,STARLINK-6222,PAYLOAD,2024-08-17 02:31:54,14.9834623,0.000291,69.9999,120.4786,270.7177,89.3649,-3.9182e-06,-1.4e-06,0.0,0 STARLINK-6222,1 56481U 23064AK  24230.10548659 -.00000140  00000-0 -39182-5 0  9993,2 56481  69.9999 120.4786 0002910 270.7177  89.3649 14.98346230 70789,6950.143,96.106,574.03,569.985,0.0
56481.0,STARLINK-6222,PAYLOAD,2024-08-17 21:45:31,14.98331229,0.0003214,69.9989,118.4574,268.1956,91.8835,-0.00012492,-1.583e-05,0.0,0 STARLINK-6222,1 56481U 23064AK  24230.90661336 -.00001583  00000-0 -12492-3 0  9994,2 56481  69.9989 118.4574 0003214 268.1956  91.8835 14.98331229 70545,6950.189,96.107,574.288,569.82,0.0
56481.0,STARLINK-6222,PAYLOAD,2024-08-18 02:33:54,14.98363926,0.0003155,69.9998,117.9534,272.6739,87.4059,-0.00057649,-6.971e-05,0.0,0 STARLINK-6222,1 56481U 23064AK  24231.10688589 -.00006971  00000-0 -57649-3 0  9995,2 56481  69.9998 117.9534 0003155 272.6739  87.4059 14.98363926 70939,6950.088,96.105,574.146,569.76,0.0
56481.0,STARLINK-6222,PAYLOAD,2024-08-18 20:11:23,14.98340811,0.0003091,69.9995,116.101,270.3963,89.6842,-4.8825e-05,-6.76e-06,0.0,0 STARLINK-6222,1 56481U 23064AK  24231.84124029 -.00000676  00000-0 -48825-4 0  9993,2 56481  69.9995 116.1010 0003091 270.3963  89.6842 14.98340811 71044,6950.159,96.106,574.173,569.876,0.0
56481.0,STARLINK-6222,PAYLOAD,2024-08-18 21:47:31,14.98340881,0.0002959,69.9997,115.9325,271.9708,88.1112,-3.8467e-05,-5.52e-06,0.0,0 STARLINK-6222,1 56481U 23064AK  24231.90799972 -.00000552  00000-0 -38467-4 0  9999,2 56481  69.9997 115.9325 0002959 271.9708  88.1112 14.98340881 70699,6950.159,96.106,574.081,569.968,0.0
56481.0,STARLINK-6222,PAYLOAD,2024-08-19 02:35:54,14.9834538,0.0002935,69.9997,115.4281,271.1528,88.9295,3.2419e-05,2.94e-06,0.0,0 STARLINK-6222,1 56481U 23064AK  24232.10827416  .00000294  00000-0  32419-4 0  9999,2 56481  69.9997 115.4281 0002935 271.1528  88.9295 14.98345380 71084,6950.145,96.106,574.05,569.97,0.0
56481.0,STARLINK-6222,PAYLOAD,2024-08-19 09:00:27,14.98336818,0.0002845,70.0007,114.7536,280.109,79.9748,-5.8482e-05,-7.91e-06,0.0,0 STARLINK-6222,1 56481U 23064AK  24232.37531997 -.00000791  00000-0 -58482-4 0  9996,2 56481  70.0007 114.7536 0002845 280.1090  79.9748 14.98336818 71122,6950.172,96.107,574.014,570.059,0.0
56481.0,STARLINK-6222,PAYLOAD,2024-08-20 02:37:57,14.98328905,0.0002676,69.9999,112.9045,269.2356,90.8496,-0.00011241,-1.434e-05,0.0,0 STARLINK-6222,1 56481U 23064AK  24233.10968949 -.00001434  00000-0 -11241-3 0  9995,2 56481  69.9999 112.9045 0002676 269.2356  90.8496 14.98328905 71231,6950.196,96.107,573.921,570.201,0.0
56481.0,STARLINK-6222,PAYLOAD,2024-08-20 20:15:25,14.98337428,0.0002982,69.9993,111.053,263.4572,96.6248,-4.5313e-05,-6.34e-06,0.0,0 STARLINK-6222,1 56481U 23064AK  24233.84404005 -.00000634  00000-0 -45313-4 0  9993,2 56481  69.9993 111.0530 0002982 263.4572  96.6248 14.98337428 71341,6950.17,96.107,574.107,569.962,0.0
56481.0,STARLINK-6222,PAYLOAD,2024-08-21 02:39:57,14.98338846,0.0002929,69.9994,110.3796,264.1715,95.9111,-2.0321e-05,-3.36e-06,0.0,0 STARLINK-6222,1 56481U 23064AK  24234.11107727 -.00000336  00000-0 -20321-4 0  9996,2 56481  69.9994 110.3796 0002929 264.1715  95.9111 14.98338846 71386,6950.166,96.106,574.066,569.995,0.0
